STARLINK-31859          
1 59848U 24097P   26068.53918534 -.00000828  00000+0 -20568-4 0  9990
2 59848  43.0029 268.2948 0001242 243.0157 117.0568 15.27571299101978
STRIX-4                 
1 60352U 24137A   26068.65404516  .00020530  00000+0  71820-3 0  9996
2 60352  43.0134 129.8162 0016840   5.2738 354.8289 15.29026223 88766
